NORAD_CAT_ID,OBJECT_NAME,OBJECT_TYPE,EPOCH,MEAN_MOTION,ECCENTRICITY,INCLINATION,RA_OF_ASC_NODE,ARG_OF_PERICENTER,MEAN_ANOMALY,BSTAR,MEAN_MOTION_DOT,MEAN_MOTION_DDOT,TLE_LINE0,TLE_LINE1,TLE_LINE2,SEMIMAJOR_AXIS,PERIOD,APOGEE,PERIGEE,DECAYED
52646.0,STARLINK-3832,PAYLOAD,2024-04-23 05:01:04,15.08839478,0.0001477,53.2169,96.3987,109.8883,250.2269,0.00017742,2.537e-05,0.0,0 STARLINK-3832,1 52646U 22052BA  24114.20907702  .00002537  00000-0  17742-3 0  9994,2 52646  53.2169  96.3987 0001477 109.8883 250.2269 15.08839478108029,6917.882,95.438,540.769,538.725,0.0
52646.0,STARLINK-3832,PAYLOAD,2024-04-23 08:11:50,15.08842243,0.0001436,53.2166,95.8034,111.3854,248.7291,0.00019923,2.884e-05,0.0,0 STARLINK-3832,1 52646U 22052BA  24114.34155545  .00002884  00000-0  19923-3 0  9997,2 52646  53.2166  95.8034 0001436 111.3854 248.7291 15.08842243107675,6917.874,95.437,540.732,538.745,0.0
52646.0,STARLINK-3832,PAYLOAD,2024-04-24 03:16:27,15.08848767,0.0001616,53.2169,92.2325,126.7501,233.364,-3.3622e-05,-8.23e-06,0.0,0 STARLINK-3832,1 52646U 22052BA  24115.13642953 -.00000823  00000-0 -33622-4 0  9995,2 52646  53.2169  92.2325 0001616 126.7501 233.3640 15.08848767107799,6917.854,95.437,540.837,538.601,0.0
52646.0,STARLINK-3832,PAYLOAD,2024-04-25 04:42:37,15.08847721,0.0001429,53.2168,87.4746,91.062,269.0536,0.00017452,2.491e-05,0.0,0 STARLINK-3832,1 52646U 22052BA  24116.19627071  .00002491  00000-0  17452-3 0  9999,2 52646  53.2168  87.4746 0001429  91.0620 269.0536 15.08847721108328,6917.857,95.437,540.71,538.733,0.0
52646.0,STARLINK-3832,PAYLOAD,2024-04-25 22:11:52,15.08842342,0.0001883,53.2183,84.2117,91.7556,268.3652,-1.964e-05,-6.01e-06,0.0,0 STARLINK-3832,1 52646U 22052BA  24116.92491514 -.00000601  00000-0 -19640-4 0  9996,2 52646  53.2183  84.2117 0001883  91.7556 268.3652 15.08842342108067,6917.873,95.437,541.041,538.436,0.0
52646.0,STARLINK-3832,PAYLOAD,2024-04-26 02:58:02,15.08840347,0.0001827,53.2177,83.3189,109.7146,250.4043,-5.6731e-05,-1.191e-05,0.0,0 STARLINK-3832,1 52646U 22052BA  24117.12363541 -.00001191  00000-0 -56731-4 0  9994,2 52646  53.2177  83.3189 0001827 109.7146 250.4043 15.08840347108465,6917.879,95.438,541.008,538.48,0.0
52646.0,STARLINK-3832,PAYLOAD,2024-04-26 14:05:44,15.08834928,0.0001659,53.217,81.2383,94.875,265.2432,-9.0542e-05,-1.729e-05,0.0,0 STARLINK-3832,1 52646U 22052BA  24117.58731948 -.00001729  00000-0 -90542-4 0  9999,2 52646  53.2170  81.2383 0001659  94.8750 265.2432 15.08834928108160,6917.896,95.438,540.909,538.613,0.0
52646.0,STARLINK-3832,PAYLOAD,2024-04-27 04:24:13,15.08831223,0.0001664,53.2195,78.5656,115.3778,244.7386,-3.0992e-05,-7.81e-06,0.0,0 STARLINK-3832,1 52646U 22052BA  24118.18348866 -.00000781  00000-0 -30992-4 0  9999,2 52646  53.2195  78.5656 0001664 115.3778 244.7386 15.08831223108620,6917.907,95.438,540.923,538.621,0.0
52646.0,STARLINK-3832,PAYLOAD,2024-04-27 07:34:59,15.08836667,0.0001394,53.2178,77.9633,91.4908,268.6244,7.187e-05,8.56e-06,0.0,0 STARLINK-3832,1 52646U 22052BA  24118.31596313  .00000856  00000-0  71870-4 0  9997,2 52646  53.2178  77.9633 0001394  91.4908 268.6244 15.08836667108645,6917.891,95.438,540.72,538.791,0.0
52646.0,STARLINK-3832,PAYLOAD,2024-04-27 13:56:32,15.08832774,0.0001325,53.2166,76.7734,80.0042,280.1099,5.2064e-05,5.41e-06,0.0,0 STARLINK-3832,1 52646U 22052BA  24118.58092682  .00000541  00000-0  52064-4 0  9991,2 52646  53.2166  76.7734 0001325  80.0042 280.1099 15.08832774108314,6917.902,95.438,540.684,538.851,0.0
52646.0,STARLINK-3832,PAYLOAD,2024-04-28 04:15:00,15.08830146,0.0001538,53.2176,74.101,103.3712,256.7452,5.8624e-05,6.45e-06,0.0,0 STARLINK-3832,1 52646U 22052BA  24119.17709271  .00000645  00000-0  58624-4 0  9999,2 52646  53.2176  74.1010 0001538 103.3712 256.7452 15.08830146108776,6917.911,95.438,540.839,538.712,0.0
52646.0,STARLINK-3832,PAYLOAD,2024-04-28 13:47:19,15.08837518,0.0001478,53.2177,72.3158,92.05,268.0661,0.00012146,1.645e-05,0.0,0 STARLINK-3832,1 52646U 22052BA  24119.57452764  .00001645  00000-0  12146-3 0  9994,2 52646  53.2177  72.3158 0001478  92.0500 268.0661 15.08837518108466,6917.888,95.438,540.775,538.731,0.0
52646.0,STARLINK-3832,PAYLOAD,2024-04-29 04:05:46,15.08848711,0.0001274,53.2179,69.6391,96.1102,264.0035,0.00018223,2.614e-05,0.0,0 STARLINK-3832,1 52646U 22052BA  24120.17067998  .00002614  00000-0  18223-3 0  9992,2 52646  53.2179  69.6391 0001274  96.1102 264.0035 15.08848711108922,6917.854,95.437,540.6,538.837,0.0
52646.0,STARLINK-3832,PAYLOAD,2024-04-29 13:38:06,15.08843181,0.0001544,53.2185,67.8537,86.6171,273.4998,7.9965e-05,9.85e-06,0.0,0 STARLINK-3832,1 52646U 22052BA  24120.56812607  .00000985  00000-0  79965-4 0  9990,2 52646  53.2185  67.8537 0001544  86.6171 273.4998 15.08843181108615,6917.871,95.437,540.804,538.668,0.0
52646.0,STARLINK-3832,PAYLOAD,2024-04-30 13:28:53,15.08842748,0.0001376,53.2183,63.3924,87.8791,272.2359,1.4389e-05,-5.9e-07,0.0,0 STARLINK-3832,1 52646U 22052BA  24121.56172792 -.00000059  00000-0  14389-4 0  9997,2 52646  53.2183  63.3924 0001376  87.8791 272.2359 15.08842748108760,6917.872,95.437,540.689,538.785,0.0
52646.0,STARLINK-3832,PAYLOAD,2024-05-01 13:19:39,15.08855685,0.0001511,53.2189,58.9332,88.6322,271.4844,-9.9385e-06,-4.46e-06,0.0,0 STARLINK-3832,1 52646U 22052BA  24122.55531618 -.00000446  00000-0 -99385-5 0  9994,2 52646  53.2189  58.9332 0001511  88.6322 271.4844 15.08855685108910,6917.832,95.437,540.743,538.652,0.0
52646.0,STARLINK-3832,PAYLOAD,2024-05-01 19:41:12,15.08846898,0.0001808,53.2197,57.7451,84.5782,275.5417,0.00012667,1.729e-05,0.0,0 STARLINK-3832,1 52646U 22052BA  24122.82027932  .00001729  00000-0  12667-3 0  9992,2 52646  53.2197  57.7451 0001808  84.5782 275.5417 15.08846898109325,6917.859,95.437,540.975,538.474,0.0
52646.0,STARLINK-3832,PAYLOAD,2024-05-02 05:13:30,15.08857831,0.0001473,53.2188,55.9588,99.4057,260.7101,0.00011959,1.617e-05,0.0,0 STARLINK-3832,1 52646U 22052BA  24123.21770958  .00001617  00000-0  11959-3 0  9998,2 52646  53.2188  55.9588 0001473  99.4057 260.7101 15.08857831109385,6917.826,95.436,540.71,538.672,0.0
52646.0,STARLINK-3832,PAYLOAD,2024-05-03 05:04:17,15.08854508,0.000124,53.2175,51.4994,95.9179,264.1955,0.00013605,1.879e-05,0.0,0 STARLINK-3832,1 52646U 22052BA  24124.21131065  .00001879  00000-0  13605-3 0  9999,2 52646  53.2175  51.4994 0001240  95.9179 264.1955 15.08854508109531,6917.836,95.437,540.559,538.843,0.0
52646.0,STARLINK-3832,PAYLOAD,2024-05-03 19:22:47,15.08830198,0.0001532,53.2171,48.8231,89.3757,270.741,-0.00010092,-1.893e-05,0.0,0 STARLINK-3832,1 52646U 22052BA  24124.80749320 -.00001893  00000-0 -10092-3 0  9998,2 52646  53.2171  48.8231 0001532  89.3757 270.7410 15.08830198109622,6917.91,95.438,540.835,538.716,0.0
52646.0,STARLINK-3832,PAYLOAD,2024-05-03 22:33:34,15.08824959,0.0001266,53.2178,48.229,88.6451,271.4686,-0.00014256,-2.555e-05,0.0,0 STARLINK-3832,1 52646U 22052BA  24124.93997814 -.00002555  00000-0 -14256-3 0  9997,2 52646  53.2178  48.2290 0001266  88.6451 271.4686 15.08824959109277,6917.926,95.439,540.667,538.916,0.0
52646.0,STARLINK-3832,PAYLOAD,2024-05-05 01:35:06,15.08844887,0.0001053,53.2171,43.174,80.5156,279.5955,0.00015927,2.248e-05,0.0,0 STARLINK-3832,1 52646U 22052BA  24126.06604866  .00002248  00000-0  15927-3 0  9998,2 52646  53.2171  43.1740 0001053  80.5156 279.5955 15.08844887109811,6917.865,95.437,540.459,539.002,0.0
52646.0,STARLINK-3832,PAYLOAD,2024-05-05 22:15:07,15.08843408,0.0001119,53.2178,39.3089,78.8899,281.2219,0.00035505,5.368e-05,0.0,0 STARLINK-3832,1 52646U 22052BA  24126.92717206  .00005368  00000-0  35505-3 0  9996,2 52646  53.2178  39.3089 0001119  78.8899 281.2219 15.08843408109572,6917.87,95.437,540.509,538.961,0.0
52646.0,STARLINK-3832,PAYLOAD,2024-05-06 03:01:16,15.08850561,0.0001099,53.2178,38.4176,81.53,278.5816,0.00044792,6.85e-05,0.0,0 STARLINK-3832,1 52646U 22052BA  24127.12588883  .00006850  00000-0  44792-3 0  9991,2 52646  53.2178  38.4176 0001099  81.5300 278.5816 15.08850561109978,6917.848,95.437,540.473,538.953,0.0
52646.0,STARLINK-3832,PAYLOAD,2024-05-06 10:58:12,15.08850991,0.0001523,53.2179,36.9305,90.1157,270.001,0.00028084,4.186e-05,0.0,0 STARLINK-3832,1 52646U 22052BA  24127.45708772  .00004186  00000-0  28084-3 0  9994,2 52646  53.2179  36.9305 0001523  90.1157 270.0010 15.08850991109659,6917.847,95.437,540.765,538.658,0.0
52646.0,STARLINK-3832,PAYLOAD,2024-05-06 22:05:53,15.08857902,0.0001308,53.218,34.8483,91.0872,269.027,0.00019944,2.889e-05,0.0,0 STARLINK-3832,1 52646U 22052BA  24127.92075940  .00002889  00000-0  19944-3 0  9993,2 52646  53.2180  34.8483 0001308  91.0872 269.0270 15.08857902109723,6917.826,95.436,540.596,538.786,0.0
52646.0,STARLINK-3832,PAYLOAD,2024-05-07 04:27:25,15.08867407,0.0001414,53.2186,33.6572,89.8661,270.2494,0.00043472,6.642e-05,0.0,0 STARLINK-3832,1 52646U 22052BA  24128.18571349  .00006642  00000-0  43472-3 0  9990,2 52646  53.2186  33.6572 0001414  89.8661 270.2494 15.08867407110134,6917.797,95.436,540.64,538.683,0.0
52646.0,STARLINK-3832,PAYLOAD,2024-05-07 10:48:58,15.0884371,0.0001308,53.2176,32.4691,79.5778,280.5362,-6.9361e-05,-1.392e-05,0.0,0 STARLINK-3832,1 52646U 22052BA  24128.45068146 -.00001392  00000-0 -69361-4 0  9991,2 52646  53.2176  32.4691 0001308  79.5778 280.5362 15.08843710110172,6917.869,95.437,540.639,538.829,0.0
52646.0,STARLINK-3832,PAYLOAD,2024-05-07 21:56:41,15.08824079,0.0001239,53.2185,30.3873,85.9414,274.172,-0.00029333,-4.951e-05,0.0,0 STARLINK-3832,1 52646U 22052BA  24128.91436832 -.00004951  00000-0 -29333-3 0  9991,2 52646  53.2185  30.3873 0001239  85.9414 274.1720 15.08824079109871,6917.929,95.439,540.651,538.937,0.0
52646.0,STARLINK-3832,PAYLOAD,2024-05-08 01:07:27,15.0883049,0.0001241,53.2186,29.793,81.0584,279.0548,-0.00019974,-3.464e-05,0.0,0 STARLINK-3832,1 52646U 22052BA  24129.04685003 -.00003464  00000-0 -19974-3 0  9990,2 52646  53.2186  29.7930 0001241  81.0584 279.0548 15.08830490110267,6917.909,95.438,540.633,538.916,0.0
